{
    "links": {
        "self": "http://www.neowsapp.com/rest/v1/neo/3698538?api_key=iIulBulltgU6a56xZRHN4H3l9WmuAYTsLGpBGhQ2"
    },
    "id": "3698538",
    "neo_reference_id": "3698538",
    "name": "(2014 HL198)",
    "designation": "2014 HL198",
    "nasa_jpl_url": "http://ssd.jpl.nasa.gov/sbdb.cgi?sstr=3698538",
    "absolute_magnitude_h": 27.3,
    "estimated_diameter": {
        "kilometers": {
            "estimated_diameter_min": 0.0092162655,
            "estimated_diameter_max": 0.0206081961
        },
        "meters": {
            "estimated_diameter_min": 9.216265485,
            "estimated_diameter_max": 20.6081961232
        },
        "miles": {
            "estimated_diameter_min": 0.0057267201,
            "estimated_diameter_max": 0.0128053354
        },
        "feet": {
            "estimated_diameter_min": 30.2370924539,
            "estimated_diameter_max": 67.6121941689
        }
    },
    "is_potentially_hazardous_asteroid": false,
    "close_approach_data": [
        {
            "close_approach_date": "2014-04-14",
            "close_approach_date_full": "2014-Apr-14 02:20",
            "epoch_date_close_approach": 1397442000000,
            "relative_velocity": {
                "kilometers_per_second": "4.8565580268",
                "kilometers_per_hour": "17483.608896522",
                "miles_per_hour": "10863.634650175"
            },
            "miss_distance": {
                "astronomical": "0.0373275123",
                "lunar": "14.5204022847",
                "kilometers": "5584116.332478801",
                "miles": "3469808.9918214138"
            },
            "orbiting_body": "Earth"
        },
        {
            "close_approach_date": "2015-03-17",
            "close_approach_date_full": "2015-Mar-17 05:36",
            "epoch_date_close_approach": 1426570560000,
            "relative_velocity": {
                "kilometers_per_second": "6.9323070855",
                "kilometers_per_hour": "24956.3055077048",
                "miles_per_hour": "15506.8777194958"
            },
            "miss_distance": {
                "astronomical": "0.0633548978",
                "lunar": "24.6450552442",
                "kilometers": "9477757.764947686",
                "miles": "5889205.5890466268"
            },
            "orbiting_body": "Mars"
        }
    ],
    "orbital_data": {
        "orbit_id": "3",
        "orbit_determination_date": "2017-04-06 08:40:51",
        "first_observation_date": "2014-04-28",
        "last_observation_date": "2014-05-02",
        "data_arc_in_days": 4,
        "observations_used": 30,
        "orbit_uncertainty": "9",
        "minimum_orbit_intersection": ".0364974",
        "jupiter_tisserand_invariant": "5.005",
        "epoch_osculation": "2456777.5",
        "eccentricity": ".2402334047861274",
        "semi_major_axis": "1.287665792913781",
        "inclination": "3.788013145706463",
        "ascending_node_longitude": "231.1867228506958",
        "orbital_period": "533.7073268929253",
        "perihelion_distance": ".9783254552554752",
        "perihelion_argument": "293.4044375953596",
        "aphelion_distance": "1.597006130572088",
        "perihelion_time": "2456726.353803639426",
        "mean_anomaly": "34.49949019249771",
        "mean_motion": ".6745269960894219",
        "equinox": "J2000",
        "orbit_class": {
            "orbit_class_type": "APO",
            "orbit_class_description": "Near-Earth asteroid orbits which cross the Earth’s orbit similar to that of 1862 Apollo",
            "orbit_class_range": "a (semi-major axis) > 1.0 AU; q (perihelion) < 1.017 AU"
        }
    },
    "is_sentry_object": false
}